CCSDS_OMM_VERS = 2.0
CREATION_DATE  = 
ORIGINATOR     = 

OBJECT_NAME    = STARLINK-36924
OBJECT_ID      = 2026-041Q
CENTER_NAME    = EARTH
REF_FRAME      = TEME
TIME_SYSTEM    = UTC
MEAN_ELEMENT_THEORY = SGP/SGP4

EPOCH          = 2026-03-20T22:09:05.393376
MEAN_MOTION    = 15.75293469
ECCENTRICITY   = .00013487
INCLINATION    = 53.1609
RA_OF_ASC_NODE = 5.9460
ARG_OF_PERICENTER = 105.8222
MEAN_ANOMALY   = 254.2947

EPHEMERIS_TYPE = 0
CLASSIFICATION_TYPE = U
NORAD_CAT_ID   = 68054
ELEMENT_SET_NO = 999
REV_AT_EPOCH   = 299
BSTAR          = .10283455E-2
MEAN_MOTION_DOT = .160397E-2
MEAN_MOTION_DDOT = 0

CCSDS_OMM_VERS = 2.0
CREATION_DATE  = 
ORIGINATOR     = 

OBJECT_NAME    = STARLINK-35998
OBJECT_ID      = 2026-041R
CENTER_NAME    = EARTH
REF_FRAME      = TEME
TIME_SYSTEM    = UTC
MEAN_ELEMENT_THEORY = SGP/SGP4

EPOCH          = 2026-03-20T23:12:32.284512
MEAN_MOTION    = 15.81016174
ECCENTRICITY   = .00008201
INCLINATION    = 53.1596
RA_OF_ASC_NODE = 5.5007
ARG_OF_PERICENTER = 104.7420
MEAN_ANOMALY   = 255.3694

EPHEMERIS_TYPE = 0
CLASSIFICATION_TYPE = U
NORAD_CAT_ID   = 68055
ELEMENT_SET_NO = 999
REV_AT_EPOCH   = 300
BSTAR          = .14683453E-2
MEAN_MOTION_DOT = .301438E-2
MEAN_MOTION_DDOT = 0

CCSDS_OMM_VERS = 2.0
CREATION_DATE  = 
ORIGINATOR     = 

OBJECT_NAME    = STARLINK-36845
OBJECT_ID      = 2026-041S
CENTER_NAME    = EARTH
REF_FRAME      = TEME
TIME_SYSTEM    = UTC
MEAN_ELEMENT_THEORY = SGP/SGP4

EPOCH          = 2026-03-20T23:10:22.761408
MEAN_MOTION    = 15.80992020
ECCENTRICITY   = .0001156
INCLINATION    = 53.1595
RA_OF_ASC_NODE = 5.4907
ARG_OF_PERICENTER = 102.4035
MEAN_ANOMALY   = 257.7117

EPHEMERIS_TYPE = 0
CLASSIFICATION_TYPE = U
NORAD_CAT_ID   = 68056
ELEMENT_SET_NO = 999
REV_AT_EPOCH   = 300
BSTAR          = .12061524E-2
MEAN_MOTION_DOT = .245594E-2
MEAN_MOTION_DDOT = 0

CCSDS_OMM_VERS = 2.0
CREATION_DATE  = 
ORIGINATOR     = 

OBJECT_NAME    = STARLINK-36954
OBJECT_ID      = 2026-041T
CENTER_NAME    = EARTH
REF_FRAME      = TEME
TIME_SYSTEM    = UTC
MEAN_ELEMENT_THEORY = SGP/SGP4

EPOCH          = 2026-03-20T22:08:37.065408
MEAN_MOTION    = 15.75331092
ECCENTRICITY   = .00010707
INCLINATION    = 53.1606
RA_OF_ASC_NODE = 5.9432
ARG_OF_PERICENTER = 63.0191
MEAN_ANOMALY   = 297.0938

EPHEMERIS_TYPE = 0
CLASSIFICATION_TYPE = U
NORAD_CAT_ID   = 68057
ELEMENT_SET_NO = 999
REV_AT_EPOCH   = 299
BSTAR          = .14539423E-2
MEAN_MOTION_DOT = .229298E-2
MEAN_MOTION_DDOT = 0

CCSDS_OMM_VERS = 2.0
CREATION_DATE  = 
ORIGINATOR     = 

OBJECT_NAME    = STARLINK-36899
OBJECT_ID      = 2026-041U
CENTER_NAME    = EARTH
REF_FRAME      = TEME
TIME_SYSTEM    = UTC
MEAN_ELEMENT_THEORY = SGP/SGP4

EPOCH          = 2026-03-20T22:02:33.227232
MEAN_MOTION    = 15.75309211
ECCENTRICITY   = .00009312
INCLINATION    = 53.1606
RA_OF_ASC_NODE = 5.9150
ARG_OF_PERICENTER = 77.5835
MEAN_ANOMALY   = 282.5289

EPHEMERIS_TYPE = 0
CLASSIFICATION_TYPE = U
NORAD_CAT_ID   = 68058
ELEMENT_SET_NO = 999
REV_AT_EPOCH   = 299
BSTAR          = .11994463E-2
MEAN_MOTION_DOT = .187937E-2
MEAN_MOTION_DDOT = 0

CCSDS_OMM_VERS = 2.0
CREATION_DATE  = 
ORIGINATOR     = 

OBJECT_NAME    = STARLINK-36917
OBJECT_ID      = 2026-041V
CENTER_NAME    = EARTH
REF_FRAME      = TEME
TIME_SYSTEM    = UTC
MEAN_ELEMENT_THEORY = SGP/SGP4

EPOCH          = 2026-03-20T20:00:01.999872
MEAN_MOTION    = 15.75273877
ECCENTRICITY   = .00010811
INCLINATION    = 53.1598
RA_OF_ASC_NODE = 6.2285
ARG_OF_PERICENTER = 91.8472
MEAN_ANOMALY   = 198.8355

EPHEMERIS_TYPE = 0
CLASSIFICATION_TYPE = U
NORAD_CAT_ID   = 68059
ELEMENT_SET_NO = 999
REV_AT_EPOCH   = 416
BSTAR          = -.4344776E-3
MEAN_MOTION_DOT = -.66816E-3
MEAN_MOTION_DDOT = 0

CCSDS_OMM_VERS = 2.0
CREATION_DATE  = 
ORIGINATOR     = 

OBJECT_NAME    = STARLINK-36959
OBJECT_ID      = 2026-041W
CENTER_NAME    = EARTH
REF_FRAME      = TEME
TIME_SYSTEM    = UTC
MEAN_ELEMENT_THEORY = SGP/SGP4

EPOCH          = 2026-03-20T20:00:01.999872
MEAN_MOTION    = 15.75269472
ECCENTRICITY   = .00010185
INCLINATION    = 53.1601
RA_OF_ASC_NODE = 6.2838
ARG_OF_PERICENTER = 83.7293
MEAN_ANOMALY   = 179.3384

EPHEMERIS_TYPE = 0
CLASSIFICATION_TYPE = U
NORAD_CAT_ID   = 68060
ELEMENT_SET_NO = 999
REV_AT_EPOCH   = 416
BSTAR          = -.44652905E-3
MEAN_MOTION_DOT = -.68623E-3
MEAN_MOTION_DDOT = 0

CCSDS_OMM_VERS = 2.0
CREATION_DATE  = 
ORIGINATOR     = 

OBJECT_NAME    = STARLINK-36915
OBJECT_ID      = 2026-041X
CENTER_NAME    = EARTH
REF_FRAME      = TEME
TIME_SYSTEM    = UTC
MEAN_ELEMENT_THEORY = SGP/SGP4

EPOCH          = 2026-03-20T23:04:58.704384
MEAN_MOTION    = 15.81011458
ECCENTRICITY   = .00007923
INCLINATION    = 53.1594
RA_OF_ASC_NODE = 5.4645
ARG_OF_PERICENTER = 64.5705
MEAN_ANOMALY   = 295.5399

EPHEMERIS_TYPE = 0
CLASSIFICATION_TYPE = U
NORAD_CAT_ID   = 68061
ELEMENT_SET_NO = 999
REV_AT_EPOCH   = 300
BSTAR          = .15125494E-2
MEAN_MOTION_DOT = .310809E-2
MEAN_MOTION_DDOT = 0

CCSDS_OMM_VERS = 2.0
CREATION_DATE  = 
ORIGINATOR     = 

OBJECT_NAME    = STARLINK-36952
OBJECT_ID      = 2026-041Y
CENTER_NAME    = EARTH
REF_FRAME      = TEME
TIME_SYSTEM    = UTC
MEAN_ELEMENT_THEORY = SGP/SGP4

EPOCH          = 2026-03-20T22:02:04.882848
MEAN_MOTION    = 15.75315162
ECCENTRICITY   = .00011262
INCLINATION    = 53.1606
RA_OF_ASC_NODE = 5.9127
ARG_OF_PERICENTER = 95.9802
MEAN_ANOMALY   = 264.1346

EPHEMERIS_TYPE = 0
CLASSIFICATION_TYPE = U
NORAD_CAT_ID   = 68062
ELEMENT_SET_NO = 999
REV_AT_EPOCH   = 299
BSTAR          = .12951296E-2
MEAN_MOTION_DOT = .203409E-2
MEAN_MOTION_DDOT = 0

CCSDS_OMM_VERS = 2.0
CREATION_DATE  = 
ORIGINATOR     = 

OBJECT_NAME    = STARLINK-37000
OBJECT_ID      = 2026-041Z
CENTER_NAME    = EARTH
REF_FRAME      = TEME
TIME_SYSTEM    = UTC
MEAN_ELEMENT_THEORY = SGP/SGP4

EPOCH          = 2026-03-19T09:06:55.838880
MEAN_MOTION    = 15.80839388
ECCENTRICITY   = .00003875
INCLINATION    = 53.1597
RA_OF_ASC_NODE = 13.3751
ARG_OF_PERICENTER = 129.0929
MEAN_ANOMALY   = 231.0129

EPHEMERIS_TYPE = 0
CLASSIFICATION_TYPE = U
NORAD_CAT_ID   = 68063
ELEMENT_SET_NO = 999
REV_AT_EPOCH   = 275
BSTAR          = -.12107026E-3
MEAN_MOTION_DOT = -.24486E-3
MEAN_MOTION_DDOT = 0

CCSDS_OMM_VERS = 2.0
CREATION_DATE  = 
ORIGINATOR     = 

OBJECT_NAME    = STARLINK-36996
OBJECT_ID      = 2026-041AA
CENTER_NAME    = EARTH
REF_FRAME      = TEME
TIME_SYSTEM    = UTC
MEAN_ELEMENT_THEORY = SGP/SGP4

EPOCH          = 2026-03-20T23:01:44.335488
MEAN_MOTION    = 15.80999851
ECCENTRICITY   = .00009687
INCLINATION    = 53.1596
RA_OF_ASC_NODE = 5.4498
ARG_OF_PERICENTER = 100.3784
MEAN_ANOMALY   = 259.7348

EPHEMERIS_TYPE = 0
CLASSIFICATION_TYPE = U
NORAD_CAT_ID   = 68064
ELEMENT_SET_NO = 999
REV_AT_EPOCH   = 300
BSTAR          = .13345048E-2
MEAN_MOTION_DOT = .27277E-2
MEAN_MOTION_DDOT = 0

CCSDS_OMM_VERS = 2.0
CREATION_DATE  = 
ORIGINATOR     = 

OBJECT_NAME    = STARLINK-36836
OBJECT_ID      = 2026-041AB
CENTER_NAME    = EARTH
REF_FRAME      = TEME
TIME_SYSTEM    = UTC
MEAN_ELEMENT_THEORY = SGP/SGP4

EPOCH          = 2026-03-20T22:59:34.648224
MEAN_MOTION    = 15.81007831
ECCENTRICITY   = .00009084
INCLINATION    = 53.1595
RA_OF_ASC_NODE = 5.4391
ARG_OF_PERICENTER = 66.0324
MEAN_ANOMALY   = 294.0794

EPHEMERIS_TYPE = 0
CLASSIFICATION_TYPE = U
NORAD_CAT_ID   = 68065
ELEMENT_SET_NO = 999
REV_AT_EPOCH   = 300
BSTAR          = .14355003E-2
MEAN_MOTION_DOT = .294319E-2
MEAN_MOTION_DDOT = 0

