STARLINK-36924          
1 68054U 26041Q   26079.92297909  .00160397  00000+0  10283-2 0  9998
2 68054  53.1609   5.9460 0001348 105.8222 254.2947 15.75293469  2993
STARLINK-35998          
1 68055U 26041R   26079.96704033  .00301438  00000+0  14683-2 0  9995
2 68055  53.1596   5.5007 0000820 104.7420 255.3694 15.81016174  3001
STARLINK-36845          
1 68056U 26041S   26079.96554122  .00245594  00000+0  12062-2 0  9997
2 68056  53.1595   5.4907 0001156 102.4035 257.7117 15.80992020  3007
STARLINK-36954          
1 68057U 26041T   26079.92265122  .00229298  00000+0  14539-2 0  9997
2 68057  53.1606   5.9432 0001070  63.0191 297.0938 15.75331092  2994
STARLINK-36899          
1 68058U 26041U   26079.91844013  .00187937  00000+0  11994-2 0  9994
2 68058  53.1606   5.9150 0000931  77.5835 282.5289 15.75309211  2998
STARLINK-36917          
1 68059U 26041V   26079.83335648 -.00066816  00000+0 -43448-3 0  9999
2 68059  53.1598   6.2285 0001081  91.8472 198.8355 15.75273877  4167
STARLINK-36959          
1 68060U 26041W   26079.83335648 -.00068623  00000+0 -44653-3 0  9998
2 68060  53.1601   6.2838 0001018  83.7293 179.3384 15.75269472  4161
STARLINK-36915          
1 68061U 26041X   26079.96179056  .00310809  00000+0  15125-2 0  9997
2 68061  53.1594   5.4645 0000792  64.5705 295.5399 15.81011458  3008
STARLINK-36952          
1 68062U 26041Y   26079.91811207  .00203409  00000+0  12951-2 0  9995
2 68062  53.1606   5.9127 0001126  95.9802 264.1346 15.75315162  2994
STARLINK-37000          
1 68063U 26041Z   26078.37981295 -.00024486  00000+0 -12107-3 0  9992
2 68063  53.1597  13.3751 0000387 129.0929 231.0129 15.80839388  2750
STARLINK-36996          
1 68064U 26041AA  26079.95954092  .00272770  00000+0  13345-2 0  9996
2 68064  53.1596   5.4498 0000968 100.3784 259.7348 15.80999851  3007
STARLINK-36836          
1 68065U 26041AB  26079.95803991  .00294319  00000+0  14355-2 0  9993
2 68065  53.1595   5.4391 0000908  66.0324 294.0794 15.81007831  3007
